58P/Jackson-Neujmin,e,13.1076,159.0769,200.4783,4.085280,0.1193634,0.66277926,45.1793,06/10.0/2021,2000,g 14.1,4.0
# From MPEC 2021-F20
59P/Kearns-Kwee,e,9.3413,312.8335,127.5422,4.487266,0.1036887,0.47510536,103.4367,06/10.0/2021,2000,g  7.0,6.0
# From MPEC 2021-F20
60P/Tsuchinshan,e,3.5903,267.5495,216.9502,3.522940,0.1490549,0.53494293,136.1286,06/10.0/2021,2000,g 11.5,6.0
# From MPEC 2015-Q71
61P/Shajn-Schaldach,e,5.9988,162.9775,221.8339,3.686761,0.1392312,0.42390910,290.2029,06/10.0/2021,2000,g  6.0,10.0
# From MPC109147
62P/Tsuchinshan,e,4.7650,69.5111,46.9400,3.352781,0.1605448,0.62971021,211.3109,06/10.0/2021,2000,g  8.0,10.0
# From MPC 84320
63P/Wild,e,19.7288,358.0186,169.1008,5.606612,0.0742426,0.64883170,221.9687,06/10.0/2021,2000,g 10.5,6.0
# From MPEC 2021-F20
64P/Swift-Gehrels,e,8.9500,299.9947,97.0717,4.453716,0.1048625,0.68794792,99.4933,06/10.0/2021,2000,g 13.4,4.0
# From MPEC 2021-F20
65P/Gunn,e,9.1795,62.0183,213.8745,3.885900,0.1286669,0.24943305,171.2909,06/10.0/2021,2000,g 11.2,4.0
# From MPEC 2021-F20
66P/duToit,e,18.6497,21.8313,257.3791,6.066493,0.0659626,0.78672916,73.7395,06/10.0/2021,2000,g 15.0,4.0
# From MPC 89011
67P/Churyumov-Gerasimenko,e,3.8711,36.3377,22.1195,3.457522,0.1533051,0.64985507,337.7645,06/10.0/2021,2000,g 11.0,4.0
# From MPC 75716
68P/Klemola,e,11.1102,175.0625,153.1357,4.953424,0.0894017,0.63764639,51.7513,06/10.0/2021,2000,g 10.0,4.0
# From MPC114607
69P/Taylor,e,22.0339,104.8257,343.4483,3.887438,0.1285905,0.41310460,104.7869,06/10.0/2021,2000,g  9.5,12.0
# From MPEC 2021-BE3
70P/Kojima,e,6.5982,119.2687,1.8384,3.676880,0.1397928,0.45362236,339.5699,06/10.0/2021,2000,g 11.0,6.0
# From MPC107051
71P/Clark,e,9.4381,59.4171,209.0495,3.138332,0.1772784,0.49395463,255.3126,06/10.0/2021,2000,g  9.8,6.0
# From MPC 89011
72P/Denning-Fujikawa,e,10.9414,26.6916,346.6882,4.310757,0.1101219,0.81840346,278.9506,06/10.0/2021,2000,g 17.5,10.0
# From MPC106348
73P/Schwassmann-Wachmann,e,11.2292,69.6301,199.4674,3.092908,0.1811980,0.68552372,279.9756,06/10.0/2021,2000,g 11.5,6.0
# From MPC106348
73P-T/Schwassmann-Wachmann,e,11.2313,69.6326,199.4488,3.094471,0.1810608,0.68572626,279.7647,06/10.0/2021,2000,g 11.5,6.0
# From MPEC 2021-BE3
74P/Smirnova-Chernykh,e,6.1818,72.5186,105.6692,4.316465,0.1099036,0.14862153,125.4763,06/10.0/2021,2000,g  5.0,6.0
# From MPEC 2021-F20
76P/West-Kohoutek-Ikemura,e,30.4597,84.1163,359.9703,3.472652,0.1523043,0.53812983,90.3082,06/10.0/2021,2000,g 15.5,4.0
# From MPC100283
77P/Longmore,e,24.3191,14.7817,196.8349,3.621846,0.1429911,0.35203810,265.2912,06/10.0/2021,2000,g  7.0,8.0
# From MPEC 2016-U66
78P/Gehrels,e,6.2514,210.5194,192.6297,3.738812,0.1363339,0.46205523,108.9583,06/10.0/2021,2000,g  9.0,4.0
# From MPC 94675
79P/du Toit-Hartley,e,3.1479,280.5321,281.7981,2.942910,0.1952264,0.61884481,195.4710,06/10.0/2021,2000,g 16.0,4.0
# From MPEC 2014-P41
80P/Peters-Hartley,e,29.9307,259.8161,339.2517,4.024361,0.1220840,0.59881169,293.2439,06/10.0/2021,2000,g  9.0,4.0
# From MPC105241
81P/Wild,e,3.2368,136.0982,41.6808,3.451647,0.1536967,0.53704508,274.8903,06/10.0/2021,2000,g  7.0,6.0
# From MPEC 2020-FB5
84P/Giclas,e,7.5518,108.1736,281.5733,3.549076,0.1474114,0.51571897,54.7100,06/10.0/2021,2000,g  9.5,8.0
# From MPC109147
86P/Wild,e,15.4741,72.3602,179.3786,3.602432,0.1441486,0.37243014,325.0403,06/10.0/2021,2000,g 11.0,6.0
# From MPEC 2020-SI8
87P/Bus,e,2.6060,181.7611,25.2175,3.444985,0.1541428,0.39019414,61.0544,06/10.0/2021,2000,g  7.2,10.0
# From MPEC 2021-F20
88P/Howell,e,4.3837,56.6795,235.9039,3.105024,0.1801385,0.56423417,46.1917,06/10.0/2021,2000,g 12.4,4.0
# From MPC100283
89P/Russell,e,12.0693,41.3810,250.3418,3.753960,0.1355094,0.40858247,221.7842,06/10.0/2021,2000,g 11.5,6.0
# From MPC107051
90P/Gehrels,e,9.6467,13.2057,29.0661,6.052774,0.0661870,0.51012359,96.0775,06/10.0/2021,2000,g  8.5,6.0
# From MPC105241
91P/Russell,e,14.0866,247.8148,354.8706,3.893992,0.1282660,0.33118288,27.2412,06/10.0/2021,2000,g  7.5,6.0
# From MPEC 2014-J58
92P/Sanguin,e,19.4960,181.3693,163.7501,5.344371,0.0797736,0.66090586,182.6456,06/10.0/2021,2000,g 12.0,6.0
# From NK 2707
93P/Lovas,e,12.2034,339.6461,74.8135,4.382810,0.1074175,0.61257317,167.7898,06/10.0/2021,2000,g  9.0,4.0
# From MPEC 2020-W26
94P/Russell,e,6.1880,70.8586,92.4629,3.507356,0.1500494,0.36489845,253.3996,06/10.0/2021,2000,g  9.0,6.0
# From MPC 75717
95P/Chiron,e,6.9304,209.2733,339.7138,13.70021,0.0194363,0.37729685,180.2764,06/10.0/2021,2000,g  6.5,2.0
# From MPEC 2017-T14
96P/Machholz,e,57.5911,93.9983,14.7390,3.028212,0.1870358,0.96159031,247.7326,06/10.0/2021,2000,g  9.0,4.0
# From MPC 77020
97P/Metcalf-Brewington,e,17.9475,184.0778,229.9081,4.764169,0.0947814,0.46044011,336.2748,06/10.0/2021,2000,g  5.5,6.0
# From MPEC 2013-H38
98P/Takamizawa,e,10.5606,114.7093,157.9015,3.799992,0.1330546,0.56242155,20.7697,06/10.0/2021,2000,g  9.0,8.0
# From MPEC 2021-L04
99P/Kowal,e,4.3388,28.1063,174.9617,6.109674,0.0652645,0.22976156,339.9694,06/10.0/2021,2000,g  4.5,6.0
# From MPEC 2013-O31
100P/Hartley,e,25.5651,37.6998,181.9898,3.432356,0.1549942,0.41233126,293.8206,06/10.0/2021,2000,g  9.0,4.0
# From MPEC 2020-FB5
101P/Chernykh,e,5.0527,116.2289,277.7041,5.803079,0.0705044,0.59595668,36.2662,06/10.0/2021,2000,g 10.0,4.8
# From MPC 86232
102P/Shoemaker,e,25.8849,339.3661,20.5443,3.812721,0.1323889,0.45709042,18.3488,06/10.0/2021,2000,g  6.5,8.0
# From MPEC 2018-HA5
103P/Hartley,e,13.6012,219.7317,181.2832,3.476118,0.1520766,0.69324403,229.9970,06/10.0/2021,2000,g  8.5,8.0
# From MPC100283
104P/Kowal,e,5.7193,207.4005,227.1091,3.207646,0.1715633,0.66555358,323.0949,06/10.0/2021,2000,g 16.0,4.0
# From MPC109147
105P/Singer Brewster,e,9.1705,192.4119,46.4858,3.467370,0.1526525,0.40947124,158.0529,06/10.0/2021,2000,g 11.5,6.0
# From MPC 92276
106P/Schuster,e,19.5362,48.8867,353.6634,3.762520,0.1350473,0.59371927,350.5787,06/10.0/2021,2000,g 14.0,4.8
# From MPEC 2015-M77
107P/Wilson-Harrington,e,2.7987,266.7917,95.4079,2.625236,0.2317136,0.63156512,257.8827,06/10.0/2021,2000,g  9.0,4.0
# From MPC 89313
108P/Ciffreo,e,11.4371,50.2930,354.4098,3.738564,0.1363474,0.55590227,347.4456,06/10.0/2021,2000,g  8.0,12.0
# From  105, 420
109P/Swift-Tuttle,e,113.9904,139.0366,152.9133,26.14139,0.0073741,0.96286652,76.8098,06/10.0/2021,2000,g  4.0,6.0
# From MPEC 2020-W26
110P/Hartley,e,11.7072,287.5345,167.4534,3.601352,0.1442134,0.31811612,341.2041,06/10.0/2021,2000,g  1.0,12.0
# From MPC 75718
111P/Helin-Roman-Crockett,e,4.2269,89.7668,0.9988,4.147217,0.1166995,0.10599430,359.3364,06/10.0/2021,2000,g  5.0,8.0
# From MPEC 2021-F20
112P/Urata-Niijima,e,24.1959,31.8359,21.4839,3.525658,0.1488825,0.58989612,72.6562,06/10.0/2021,2000,g 15.3,4.0
# From MPEC 2015-E14
113P/Spitaler,e,5.2945,306.7068,115.3627,3.699231,0.1385278,0.42096244,310.6907,06/10.0/2021,2000,g 13.5,4.0
# From MPEC 2021-J28
114P/Wiseman-Skiff,e,18.2733,271.0506,172.7742,3.545334,0.1476449,0.55475178,75.7364,06/10.0/2021,2000,g 11.5,6.0
# From MPEC 2020-SI8
115P/Maury,e,11.6776,176.0102,120.9766,4.272317,0.1116115,0.51859549,35.2007,06/10.0/2021,2000,g 10.5,6.0
# From MPC106348
116P/Wild,e,3.6034,20.9851,173.3387,3.489838,0.1511807,0.37063222,299.2215,06/10.0/2021,2000,g  2.5,10.0
# From MPEC 2021-F20
117P/Helin-Roman-Alu,e,8.7026,58.8428,222.8490,4.084700,0.1193888,0.25569981,313.1575,06/10.0/2021,2000,g 10.8,4.0
# From MPC 95735
118P/Shoemaker-Levy,e,10.0928,142.1121,314.4085,3.361646,0.1599102,0.45519193,275.1259,06/10.0/2021,2000,g 12.0,4.0
# From MPC 84628
119P/Parker-Hartley,e,7.4022,104.6777,321.7212,3.816946,0.1321691,0.39002471,303.5675,06/10.0/2021,2000,g  3.5,8.0
# From MPEC 2020-SI8
120P/Mueller,e,8.4900,358.6743,36.5614,3.961429,0.1250047,0.37450112,4.2309,06/10.0/2021,2000,g 12.0,4.0
# From MPEC 2020-SI8
121P/Shoemaker-Holt,e,20.1630,94.1271,11.3808,4.584738,0.1003997,0.18563636,284.9713,06/10.0/2021,2000,g  6.5,8.0
# From MPC 75718
122P/de Vico,e,84.9260,79.5565,13.0068,17.62679,0.0133182,0.96225582,125.2423,06/10.0/2021,2000,g  7.5,5.2
# From MPEC 2021-F20
123P/West-Hartley,e,15.2924,46.1636,103.8606,3.874210,0.1292496,0.44700759,110.6470,06/10.0/2021,2000,g 12.2,4.0
# From MPEC 2021-F20
124P/Mrkos,e,31.5238,0.3252,183.9879,3.320942,0.1628591,0.50349702,66.6058,06/10.0/2021,2000,g 15.2,4.0
# From MPEC 2015-M77
125P/Spacewatch,e,9.9866,153.1493,87.2395,3.125927,0.1783347,0.51267071,181.4680,06/10.0/2021,2000,g  9.0,4.0
# From MPC 66205
126P/IRAS,e,45.8698,357.8634,356.5258,5.639882,0.0735867,0.69628373,304.4174,06/10.0/2021,2000,g  9.0,4.0
# From MPC 84321
127P/Holt-Olmstead,e,14.2965,13.6338,6.4645,3.451516,0.1537054,0.35990237,294.3622,06/10.0/2021,2000,g 11.0,6.0
# From MPC 89014
128P/Shoemaker-Holt,e,4.3676,214.2983,210.3025,4.492119,0.1035207,0.32075963,166.9495,06/10.0/2021,2000,g  8.5,4.0
# From MPEC 2019-TG9
129P/Shoemaker-Levy,e,3.4423,184.8811,307.8126,4.283539,0.1111732,0.08404843,299.8511,06/10.0/2021,2000,g 11.0,4.0
# From MPC 78188
130P/McNaught-Hughes,e,6.0627,70.2252,246.0114,3.383803,0.1583421,0.46136722,195.4418,06/10.0/2021,2000,g 10.0,6.0
# From MPC102101
131P/Mueller,e,7.3555,214.1571,179.0267,3.680646,0.1395783,0.34394114,121.1055,06/10.0/2021,2000,g 11.0,4.0
# From MPEC 2020-HN5
132P/Helin-Roman-Alu,e,5.3817,174.0007,216.3440,3.888252,0.1285501,0.56491797,339.9292,06/10.0/2021,2000,g 11.0,6.0
# From MPC 94676
133P/Elst-Pizarro,e,1.3892,160.1077,131.8338,3.164753,0.1750630,0.15692703,173.6951,06/10.0/2021,2000,g 15.4,2.0
# From MPC 89012
134P/Kowal-Vavrova,e,4.3397,202.0723,18.8876,6.260398,0.0629218,0.58603040,162.2869,06/10.0/2021,2000,g 11.5,4.0
# From MPEC 2021-F20
135P/Shoemaker-Levy,e,6.0620,213.0286,22.2973,3.803092,0.1328920,0.29527811,319.9675,06/10.0/2021,2000,g  7.0,8.0
# From MPEC 2020-W26
136P/Mueller,e,9.4244,137.4486,224.9055,4.193371,0.1147781,0.29277611,210.5226,06/10.0/2021,2000,g 11.0,4.0
# From MPEC 2021-J28
137P/Shoemaker-Levy,e,4.8539,233.0301,141.0358,4.520615,0.1025434,0.57351905,93.2376,06/10.0/2021,2000,g 11.0,4.0
# From MPEC 2016-U66
